{
  "station": {
    "code": "RKSI",
    "name": "Incheon International Airport",
    "location": "Seoul/Incheon, South Korea"
  },
  "observations": [
    {
      "date": "2026-01-26",
      "time": "14:00",
      "flight_category": "V",
      "weather_condition": "Sunny",
      "temperature_c": -2,
      "visibility": "10 km+",
      "ceiling": null,
      "wind": {
        "direction": 330,
        "speed_kt": 6
      },
      "raw_metar": "METAR RKSI 260500Z 33006KT CAVOK M02/M14 Q1026 NOSIG"
    },
    {
      "date": "2026-01-26",
      "time": "13:30",
      "flight_category": "V",
      "weather_condition": "Sunny",
      "temperature_c": -2,
      "visibility": "10 km+",
      "ceiling": null,
      "wind": {
        "direction": 340,
        "speed_kt": 4
      },
      "raw_metar": "METAR RKSI 260430Z 34004KT CAVOK M02/M12 Q1027 NOSIG"
    },
    {
      "date": "2026-01-26",
      "time": "13:00",
      "flight_category": "V",
      "weather_condition": "Sunny",
      "temperature_c": -2,
      "visibility": "10 km+",
      "ceiling": null,
      "wind": {
        "direction": 320,
        "speed_kt": 6
      },
      "raw_metar": "METAR RKSI 260400Z 32006KT 270V340 CAVOK M02/M11 Q1027 NOSIG"
    },
    {
      "date": "2026-01-26",
      "time": "12:30",
      "flight_category": "V",
      "weather_condition": "Sunny",
      "temperature_c": -3,
      "visibility": "10 km+",
      "ceiling": null,
      "wind": {
        "direction": 270,
        "speed_kt": 4
      },
      "raw_metar": "METAR RKSI 260330Z 27004KT 220V320 CAVOK M03/M10 Q1028 NOSIG"
    },
    {
      "date": "2026-01-26",
      "time": "12:00",
      "flight_category": "V",
      "weather_condition": "Sunny",
      "temperature_c": -2,
      "visibility": "10 km+",
      "ceiling": null,
      "wind": {
        "direction": 290,
        "speed_kt": 3
      },
      "raw_metar": "METAR RKSI 260300Z 29003KT 290V350 CAVOK M02/M10 Q1028 NOSIG"
    },
    {
      "date": "2026-01-26",
      "time": "11:30",
      "flight_category": "V",
      "weather_condition": "Sunny",
      "temperature_c": -3,
      "visibility": "10 km+",
      "ceiling": null,
      "wind": {
        "direction": 270,
        "speed_kt": 3
      },
      "raw_metar": "METAR RKSI 260230Z 27003KT CAVOK M03/M10 Q1029 NOSIG"
    },
    {
      "date": "2026-01-26",
      "time": "11:00",
      "flight_category": "V",
      "weather_condition": "Sunny",
      "temperature_c": -3,
      "visibility": "10 km+",
      "ceiling": null,
      "wind": {
        "direction": 190,
        "speed_kt": 4
      },
      "raw_metar": "METAR RKSI 260200Z 19004KT 120V270 CAVOK M03/M10 Q1029 NOSIG"
    },
    {
      "date": "2026-01-26",
      "time": "10:30",
      "flight_category": "V",
      "weather_condition": "Sunny",
      "temperature_c": -4,
      "visibility": "10 km+",
      "ceiling": null,
      "wind": {
        "direction": 10,
        "speed_kt": 1
      },
      "raw_metar": "METAR RKSI 260130Z 01001KT CAVOK M04/M12 Q1029 NOSIG"
    },
    {
      "date": "2026-01-26",
      "time": "10:00",
      "flight_category": "V",
      "weather_condition": "Sunny",
      "temperature_c": -5,
      "visibility": "10 km+",
      "ceiling": null,
      "wind": {
        "direction": 30,
        "speed_kt": 2
      },
      "raw_metar": "METAR RKSI 260100Z 03002KT CAVOK M05/M12 Q1029 NOSIG"
    },
    {
      "date": "2026-01-26",
      "time": "09:30",
      "flight_category": "V",
      "weather_condition": "Sunny",
      "temperature_c": -6,
      "visibility": "10 km+",
      "ceiling": null,
      "wind": {
        "direction": 40,
        "speed_kt": 2
      },
      "raw_metar": "METAR RKSI 260030Z 04002KT CAVOK M06/M12 Q1029 NOSIG"
    },
    {
      "date": "2026-01-26",
      "time": "09:00",
      "flight_category": "V",
      "weather_condition": "Sunny",
      "temperature_c": -6,
      "visibility": "10 km+",
      "ceiling": null,
      "wind": {
        "direction": 40,
        "speed_kt": 5
      },
      "raw_metar": "METAR RKSI 260000Z 04005KT CAVOK M06/M13 Q1029 NOSIG"
    },
    {
      "date": "2026-01-26",
      "time": "08:30",
      "flight_category": "V",
      "weather_condition": "Sunny (Night)",
      "temperature_c": -7,
      "visibility": "10 km+",
      "ceiling": null,
      "wind": {
        "direction": 50,
        "speed_kt": 6
      },
      "raw_metar": "METAR RKSI 252330Z 05006KT CAVOK M07/M12 Q1028 NOSIG"
    },
    {
      "date": "2026-01-26",
      "time": "08:00",
      "flight_category": "V",
      "weather_condition": "Sunny (Night)",
      "temperature_c": -7,
      "visibility": "10 km+",
      "ceiling": null,
      "wind": {
        "direction": 50,
        "speed_kt": 3
      },
      "raw_metar": "METAR RKSI 252300Z 05003KT CAVOK M07/M12 Q1029 NOSIG"
    },
    {
      "date": "2026-01-26",
      "time": "07:30",
      "flight_category": "V",
      "weather_condition": "Sunny (Night)",
      "temperature_c": -8,
      "visibility": "10 km+",
      "ceiling": null,
      "wind": {
        "direction": 50,
        "speed_kt": 4
      },
      "raw_metar": "METAR RKSI 252230Z 05004KT CAVOK M08/M12 Q1029 NOSIG"
    },
    {
      "date": "2026-01-26",
      "time": "07:00",
      "flight_category": "V",
      "weather_condition": "Sunny (Night)",
      "temperature_c": -8,
      "visibility": "10 km+",
      "ceiling": null,
      "wind": {
        "direction": 50,
        "speed_kt": 5
      },
      "raw_metar": "METAR RKSI 252200Z 05005KT CAVOK M08/M13 Q1029 NOSIG"
    },
    {
      "date": "2026-01-26",
      "time": "06:30",
      "flight_category": "V",
      "weather_condition": "Sunny (Night)",
      "temperature_c": -8,
      "visibility": "10 km+",
      "ceiling": null,
      "wind": {
        "direction": 40,
        "speed_kt": 4
      },
      "raw_metar": "METAR RKSI 252130Z 04004KT CAVOK M08/M13 Q1029 NOSIG"
    },
    {
      "date": "2026-01-26",
      "time": "06:00",
      "flight_category": "V",
      "weather_condition": "Sunny (Night)",
      "temperature_c": -7,
      "visibility": "10 km+",
      "ceiling": null,
      "wind": {
        "direction": 50,
        "speed_kt": 5
      },
      "raw_metar": "METAR RKSI 252100Z 05005KT CAVOK M07/M14 Q1029 NOSIG"
    },
    {
      "date": "2026-01-26",
      "time": "05:30",
      "flight_category": "V",
      "weather_condition": "Sunny (Night)",
      "temperature_c": -7,
      "visibility": "10 km+",
      "ceiling": null,
      "wind": {
        "direction": 50,
        "speed_kt": 6
      },
      "raw_metar": "METAR RKSI 252030Z 05006KT CAVOK M07/M14 Q1029 NOSIG"
    },
    {
      "date": "2026-01-26",
      "time": "05:00",
      "flight_category": "V",
      "weather_condition": "Sunny (Night)",
      "temperature_c": -7,
      "visibility": "10 km+",
      "ceiling": null,
      "wind": {
        "direction": 50,
        "speed_kt": 6
      },
      "raw_metar": "METAR RKSI 252000Z 05006KT CAVOK M07/M14 Q1029 NOSIG"
    },
    {
      "date": "2026-01-26",
      "time": "04:30",
      "flight_category": "V",
      "weather_condition": "Sunny (Night)",
      "temperature_c": -7,
      "visibility": "10 km+",
      "ceiling": null,
      "wind": {
        "direction": 50,
        "speed_kt": 4
      },
      "raw_metar": "METAR RKSI 251930Z 05004KT CAVOK M07/M14 Q1030 NOSIG"
    },
    {
      "date": "2026-01-26",
      "time": "04:00",
      "flight_category": "V",
      "weather_condition": "Sunny (Night)",
      "temperature_c": -7,
      "visibility": "10 km+",
      "ceiling": null,
      "wind": {
        "direction": 50,
        "speed_kt": 5
      },
      "raw_metar": "METAR RKSI 251900Z 05005KT CAVOK M07/M14 Q1030 NOSIG"
    },
    {
      "date": "2026-01-26",
      "time": "03:30",
      "flight_category": "V",
      "weather_condition": "Sunny (Night)",
      "temperature_c": -7,
      "visibility": "10 km+",
      "ceiling": null,
      "wind": {
        "direction": 50,
        "speed_kt": 4
      },
      "raw_metar": "METAR RKSI 251830Z 05004KT CAVOK M07/M14 Q1030 NOSIG"
    },
    {
      "date": "2026-01-26",
      "time": "03:00",
      "flight_category": "V",
      "weather_condition": "Sunny (Night)",
      "temperature_c": -8,
      "visibility": "10 km+",
      "ceiling": null,
      "wind": {
        "direction": 50,
        "speed_kt": 4
      },
      "raw_metar": "METAR RKSI 251800Z 05004KT CAVOK M08/M14 Q1030 NOSIG"
    },
    {
      "date": "2026-01-26",
      "time": "02:30",
      "flight_category": "V",
      "weather_condition": "Sunny (Night)",
      "temperature_c": -8,
      "visibility": "10 km+",
      "ceiling": null,
      "wind": {
        "direction": 30,
        "speed_kt": 2
      },
      "raw_metar": "METAR RKSI 251730Z 03002KT CAVOK M08/M14 Q1030 NOSIG"
    },
    {
      "date": "2026-01-26",
      "time": "02:00",
      "flight_category": "V",
      "weather_condition": "Sunny (Night)",
      "temperature_c": -7,
      "visibility": "10 km+",
      "ceiling": null,
      "wind": {
        "direction": 50,
        "speed_kt": 4
      },
      "raw_metar": "METAR RKSI 251700Z 05004KT CAVOK M07/M14 Q1030 NOSIG"
    },
    {
      "date": "2026-01-26",
      "time": "01:30",
      "flight_category": "V",
      "weather_condition": "Sunny (Night)",
      "temperature_c": -7,
      "visibility": "10 km+",
      "ceiling": null,
      "wind": {
        "direction": 40,
        "speed_kt": 3
      },
      "raw_metar": "METAR RKSI 251630Z 04003KT CAVOK M07/M14 Q1029 NOSIG"
    },
    {
      "date": "2026-01-26",
      "time": "01:00",
      "flight_category": "V",
      "weather_condition": "Sunny (Night)",
      "temperature_c": -7,
      "visibility": "10 km+",
      "ceiling": null,
      "wind": {
        "direction": 60,
        "speed_kt": 5
      },
      "raw_metar": "METAR RKSI 251600Z 06005KT CAVOK M07/M13 Q1029 NOSIG"
    },
    {
      "date": "2026-01-26",
      "time": "00:30",
      "flight_category": "V",
      "weather_condition": "Sunny (Night)",
      "temperature_c": -7,
      "visibility": "10 km+",
      "ceiling": null,
      "wind": {
        "direction": 50,
        "speed_kt": 4
      },
      "raw_metar": "METAR RKSI 251530Z 05004KT CAVOK M07/M13 Q1030 NOSIG"
    },
    {
      "date": "2026-01-26",
      "time": "00:00",
      "flight_category": "V",
      "weather_condition": "Sunny (Night)",
      "temperature_c": -7,
      "visibility": "10 km+",
      "ceiling": null,
      "wind": {
        "direction": 50,
        "speed_kt": 6
      },
      "raw_metar": "METAR RKSI 251500Z 05006KT CAVOK M07/M14 Q1029 NOSIG"
    },
    {
      "date": "2026-01-25",
      "time": "23:30",
      "flight_category": "V",
      "weather_condition": "Sunny (Night)",
      "temperature_c": -7,
      "visibility": "10 km+",
      "ceiling": null,
      "wind": {
        "direction": 40,
        "speed_kt": 3
      },
      "raw_metar": "METAR RKSI 251430Z 04003KT 010V070 CAVOK M07/M15 Q1030 NOSIG"
    },
    {
      "date": "2026-01-25",
      "time": "23:00",
      "flight_category": "V",
      "weather_condition": "Sunny (Night)",
      "temperature_c": -5,
      "visibility": "10 km+",
      "ceiling": null,
      "wind": {
        "direction": 10,
        "speed_kt": 5
      },
      "raw_metar": "METAR RKSI 251400Z 01005KT CAVOK M05/M14 Q1031 NOSIG"
    },
    {
      "date": "2026-01-25",
      "time": "22:30",
      "flight_category": "V",
      "weather_condition": "Sunny (Night)",
      "temperature_c": -5,
      "visibility": "10 km+",
      "ceiling": null,
      "wind": {
        "direction": 20,
        "speed_kt": 5
      },
      "raw_metar": "METAR RKSI 251330Z 02005KT CAVOK M05/M15 Q1031 NOSIG"
    },
    {
      "date": "2026-01-25",
      "time": "22:00",
      "flight_category": "V",
      "weather_condition": "Sunny (Night)",
      "temperature_c": -5,
      "visibility": "10 km+",
      "ceiling": null,
      "wind": {
        "direction": 10,
        "speed_kt": 5
      },
      "raw_metar": "METAR RKSI 251300Z 01005KT CAVOK M05/M14 Q1031 NOSIG"
    },
    {
      "date": "2026-01-25",
      "time": "21:30",
      "flight_category": "V",
      "weather_condition": "Sunny (Night)",
      "temperature_c": -6,
      "visibility": "10 km+",
      "ceiling": null,
      "wind": {
        "direction": 40,
        "speed_kt": 4
      },
      "raw_metar": "METAR RKSI 251230Z 04004KT CAVOK M06/M14 Q1031 NOSIG"
    },
    {
      "date": "2026-01-25",
      "time": "21:00",
      "flight_category": "V",
      "weather_condition": "Sunny (Night)",
      "temperature_c": -6,
      "visibility": "10 km+",
      "ceiling": null,
      "wind": {
        "direction": 320,
        "speed_kt": 2
      },
      "raw_metar": "METAR RKSI 251200Z 32002KT CAVOK M06/M15 Q1031 NOSIG"
    },
    {
      "date": "2026-01-25",
      "time": "20:30",
      "flight_category": "V",
      "weather_condition": "Sunny (Night)",
      "temperature_c": -6,
      "visibility": "10 km+",
      "ceiling": null,
      "wind": {
        "direction": 280,
        "speed_kt": 2
      },
      "raw_metar": "METAR RKSI 251130Z 28002KT CAVOK M06/M15 Q1032 NOSIG"
    },
    {
      "date": "2026-01-25",
      "time": "20:00",
      "flight_category": "V",
      "weather_condition": "Sunny (Night)",
      "temperature_c": -5,
      "visibility": "10 km+",
      "ceiling": null,
      "wind": {
        "direction": 160,
        "speed_kt": 2
      },
      "raw_metar": "METAR RKSI 251100Z 16002KT CAVOK M05/M15 Q1031 NOSIG"
    },
    {
      "date": "2026-01-25",
      "time": "19:30",
      "flight_category": "V",
      "weather_condition": "Sunny (Night)",
      "temperature_c": -5,
      "visibility": "10 km+",
      "ceiling": null,
      "wind": {
        "direction": 90,
        "speed_kt": 1
      },
      "raw_metar": "METAR RKSI 251030Z 09001KT CAVOK M05/M15 Q1031 NOSIG"
    },
    {
      "date": "2026-01-25",
      "time": "19:00",
      "flight_category": "V",
      "weather_condition": "Sunny (Night)",
      "temperature_c": -4,
      "visibility": "10 km+",
      "ceiling": null,
      "wind": {
        "direction": 250,
        "speed_kt": 4
      },
      "raw_metar": "METAR RKSI 251000Z 25004KT 160V280 CAVOK M04/M15 Q1031 NOSIG"
    },
    {
      "date": "2026-01-25",
      "time": "18:30",
      "flight_category": "V",
      "weather_condition": "Sunny (Night)",
      "temperature_c": -5,
      "visibility": "10 km+",
      "ceiling": null,
      "wind": {
        "direction": 240,
        "speed_kt": 4
      },
      "raw_metar": "METAR RKSI 250930Z 24004KT CAVOK M05/M16 Q1031 NOSIG"
    },
    {
      "date": "2026-01-25",
      "time": "18:00",
      "flight_category": "V",
      "weather_condition": "Sunny (Night)",
      "temperature_c": -5,
      "visibility": "10 km+",
      "ceiling": null,
      "wind": {
        "direction": 240,
        "speed_kt": 4
      },
      "raw_metar": "METAR RKSI 250900Z 24004KT CAVOK M05/M16 Q1031 NOSIG"
    },
    {
      "date": "2026-01-25",
      "time": "17:30",
      "flight_category": "V",
      "weather_condition": "Sunny",
      "temperature_c": -4,
      "visibility": "10 km+",
      "ceiling": null,
      "wind": {
        "direction": 300,
        "speed_kt": 3
      },
      "raw_metar": "METAR RKSI 250830Z 30003KT 230V340 CAVOK M04/M16 Q1030 NOSIG"
    },
    {
      "date": "2026-01-25",
      "time": "17:00",
      "flight_category": "V",
      "weather_condition": "Sunny",
      "temperature_c": -4,
      "visibility": "10 km+",
      "ceiling": null,
      "wind": {
        "direction": 270,
        "speed_kt": 5
      },
      "raw_metar": "METAR RKSI 250800Z 27005KT 230V330 CAVOK M04/M15 Q1031 NOSIG"
    },
    {
      "date": "2026-01-25",
      "time": "16:30",
      "flight_category": "V",
      "weather_condition": "Sunny",
      "temperature_c": -4,
      "visibility": "10 km+",
      "ceiling": null,
      "wind": {
        "direction": 290,
        "speed_kt": 5
      },
      "raw_metar": "METAR RKSI 250730Z 29005KT 250V350 CAVOK M04/M15 Q1031 NOSIG"
    },
    {
      "date": "2026-01-25",
      "time": "16:00",
      "flight_category": "V",
      "weather_condition": "Sunny",
      "temperature_c": -4,
      "visibility": "10 km+",
      "ceiling": null,
      "wind": {
        "direction": 300,
        "speed_kt": 8
      },
      "raw_metar": "METAR RKSI 250700Z 30008KT 260V330 CAVOK M04/M15 Q1031 NOSIG"
    },
    {
      "date": "2026-01-25",
      "time": "15:30",
      "flight_category": "V",
      "weather_condition": "Sunny",
      "temperature_c": -3,
      "visibility": "10 km+",
      "ceiling": null,
      "wind": {
        "direction": 290,
        "speed_kt": 10
      },
      "raw_metar": "METAR RKSI 250630Z 29010KT 260V330 CAVOK M03/M16 Q1031 NOSIG"
    },
    {
      "date": "2026-01-25",
      "time": "15:00",
      "flight_category": "V",
      "weather_condition": "Sunny",
      "temperature_c": -3,
      "visibility": "10 km+",
      "ceiling": null,
      "wind": {
        "direction": 280,
        "speed_kt": 10
      },
      "raw_metar": "METAR RKSI 250600Z 28010KT 260V320 CAVOK M03/M17 Q1031 NOSIG"
    },
    {
      "date": "2026-01-25",
      "time": "14:30",
      "flight_category": "V",
      "weather_condition": "Sunny",
      "temperature_c": -4,
      "visibility": "10 km+",
      "ceiling": null,
      "wind": {
        "direction": 290,
        "speed_kt": 10
      },
      "raw_metar": "METAR RKSI 250530Z 29010KT 260V320 CAVOK M04/M17 Q1031 NOSIG"
    },
    {
      "date": "2026-01-25",
      "time": "14:00",
      "flight_category": "V",
      "weather_condition": "Sunny",
      "temperature_c": -3,
      "visibility": "10 km+",
      "ceiling": null,
      "wind": {
        "direction": 280,
        "speed_kt": 11
      },
      "raw_metar": "METAR RKSI 250500Z 28011KT 260V320 CAVOK M03/M16 Q1031 NOSIG"
    },
    {
      "date": "2026-01-25",
      "time": "13:30",
      "flight_category": "V",
      "weather_condition": "Sunny",
      "temperature_c": -4,
      "visibility": "10 km+",
      "ceiling": null,
      "wind": {
        "direction": 310,
        "speed_kt": 12
      },
      "raw_metar": "METAR RKSI 250430Z 31012KT 270V330 CAVOK M04/M19 Q1032 NOSIG"
    },
    {
      "date": "2026-01-25",
      "time": "13:00",
      "flight_category": "V",
      "weather_condition": "Sunny",
      "temperature_c": -4,
      "visibility": "10 km+",
      "ceiling": null,
      "wind": {
        "direction": 300,
        "speed_kt": 9
      },
      "raw_metar": "METAR RKSI 250400Z 30009KT 260V340 CAVOK M04/M18 Q1032 NOSIG"
    },
    {
      "date": "2026-01-25",
      "time": "12:30",
      "flight_category": "V",
      "weather_condition": "Sunny",
      "temperature_c": -5,
      "visibility": "10 km+",
      "ceiling": null,
      "wind": {
        "direction": 300,
        "speed_kt": 8
      },
      "raw_metar": "METAR RKSI 250330Z 30008KT 270V330 CAVOK M05/M19 Q1032 NOSIG"
    },
    {
      "date": "2026-01-25",
      "time": "12:00",
      "flight_category": "V",
      "weather_condition": "Sunny",
      "temperature_c": -5,
      "visibility": "10 km+",
      "ceiling": null,
      "wind": {
        "direction": 330,
        "speed_kt": 9
      },
      "raw_metar": "METAR RKSI 250300Z 33009KT 290V350 CAVOK M05/M19 Q1032 NOSIG"
    },
    {
      "date": "2026-01-25",
      "time": "11:30",
      "flight_category": "V",
      "weather_condition": "Sunny",
      "temperature_c": -5,
      "visibility": "10 km+",
      "ceiling": null,
      "wind": {
        "direction": 330,
        "speed_kt": 8
      },
      "raw_metar": "METAR RKSI 250230Z 33008KT 290V360 CAVOK M05/M19 Q1032 NOSIG"
    },
    {
      "date": "2026-01-25",
      "time": "11:00",
      "flight_category": "V",
      "weather_condition": "Sunny",
      "temperature_c": -5,
      "visibility": "10 km+",
      "ceiling": null,
      "wind": {
        "direction": 340,
        "speed_kt": 11
      },
      "raw_metar": "METAR RKSI 250200Z 34011KT CAVOK M05/M20 Q1032 NOSIG"
    },
    {
      "date": "2026-01-25",
      "time": "10:30",
      "flight_category": "V",
      "weather_condition": "Sunny",
      "temperature_c": -6,
      "visibility": "10 km+",
      "ceiling": null,
      "wind": {
        "direction": 350,
        "speed_kt": 10
      },
      "raw_metar": "METAR RKSI 250130Z 35010KT CAVOK M06/M19 Q1032 NOSIG"
    },
    {
      "date": "2026-01-25",
      "time": "10:00",
      "flight_category": "V",
      "weather_condition": "Sunny",
      "temperature_c": -6,
      "visibility": "10 km+",
      "ceiling": null,
      "wind": {
        "direction": 340,
        "speed_kt": 13
      },
      "raw_metar": "METAR RKSI 250100Z 34013KT CAVOK M06/M18 Q1031 NOSIG"
    },
    {
      "date": "2026-01-25",
      "time": "09:30",
      "flight_category": "V",
      "weather_condition": "Sunny",
      "temperature_c": -6,
      "visibility": "10 km+",
      "ceiling": null,
      "wind": {
        "direction": 330,
        "speed_kt": 13
      },
      "raw_metar": "METAR RKSI 250030Z 33013KT CAVOK M06/M18 Q1032 NOSIG"
    },
    {
      "date": "2026-01-25",
      "time": "09:00",
      "flight_category": "V",
      "weather_condition": "Sunny",
      "temperature_c": -6,
      "visibility": "10 km+",
      "ceiling": null,
      "wind": {
        "direction": 320,
        "speed_kt": 11
      },
      "raw_metar": "METAR RKSI 250000Z 32011KT CAVOK M06/M18 Q1032 NOSIG"
    },
    {
      "date": "2026-01-25",
      "time": "08:30",
      "flight_category": "V",
      "weather_condition": "Sunny (Night)",
      "temperature_c": -7,
      "visibility": "10 km+",
      "ceiling": null,
      "wind": {
        "direction": 340,
        "speed_kt": 11
      },
      "raw_metar": "METAR RKSI 242330Z 34011KT CAVOK M07/M18 Q1032 NOSIG"
    },
    {
      "date": "2026-01-25",
      "time": "08:00",
      "flight_category": "V",
      "weather_condition": "Sunny (Night)",
      "temperature_c": -8,
      "visibility": "10 km+",
      "ceiling": null,
      "wind": {
        "direction": 340,
        "speed_kt": 10
      },
      "raw_metar": "METAR RKSI 242300Z 34010KT CAVOK M08/M18 Q1031 NOSIG"
    },
    {
      "date": "2026-01-25",
      "time": "07:30",
      "flight_category": "V",
      "weather_condition": "Sunny (Night)",
      "temperature_c": -7,
      "visibility": "10 km+",
      "ceiling": null,
      "wind": {
        "direction": 330,
        "speed_kt": 11
      },
      "raw_metar": "METAR RKSI 242230Z 33011KT CAVOK M07/M17 Q1031 NOSIG"
    },
    {
      "date": "2026-01-25",
      "time": "07:00",
      "flight_category": "V",
      "weather_condition": "Sunny (Night)",
      "temperature_c": -8,
      "visibility": "10 km+",
      "ceiling": null,
      "wind": {
        "direction": 320,
        "speed_kt": 9
      },
      "raw_metar": "METAR RKSI 242200Z 32009KT CAVOK M08/M18 Q1031 NOSIG"
    },
    {
      "date": "2026-01-25",
      "time": "06:30",
      "flight_category": "V",
      "weather_condition": "Sunny (Night)",
      "temperature_c": -9,
      "visibility": "10 km+",
      "ceiling": null,
      "wind": {
        "direction": 330,
        "speed_kt": 8
      },
      "raw_metar": "METAR RKSI 242130Z 33008KT CAVOK M09/M18 Q1030 NOSIG"
    },
    {
      "date": "2026-01-25",
      "time": "06:00",
      "flight_category": "V",
      "weather_condition": "Sunny (Night)",
      "temperature_c": -8,
      "visibility": "10 km+",
      "ceiling": null,
      "wind": {
        "direction": 350,
        "speed_kt": 7
      },
      "raw_metar": "METAR RKSI 242100Z 35007KT CAVOK M08/M18 Q1030 NOSIG"
    },
    {
      "date": "2026-01-25",
      "time": "05:30",
      "flight_category": "V",
      "weather_condition": "Sunny (Night)",
      "temperature_c": -7,
      "visibility": "10 km+",
      "ceiling": null,
      "wind": {
        "direction": 360,
        "speed_kt": 11
      },
      "raw_metar": "METAR RKSI 242030Z 36011KT CAVOK M07/M19 Q1030 NOSIG"
    },
    {
      "date": "2026-01-25",
      "time": "05:00",
      "flight_category": "V",
      "weather_condition": "Sunny (Night)",
      "temperature_c": -6,
      "visibility": "10 km+",
      "ceiling": null,
      "wind": {
        "direction": 320,
        "speed_kt": 12
      },
      "raw_metar": "METAR RKSI 242000Z 32012KT CAVOK M06/M18 Q1030 NOSIG"
    },
    {
      "date": "2026-01-25",
      "time": "04:30",
      "flight_category": "V",
      "weather_condition": "Sunny (Night)",
      "temperature_c": -6,
      "visibility": "10 km+",
      "ceiling": null,
      "wind": {
        "direction": 320,
        "speed_kt": 13
      },
      "raw_metar": "METAR RKSI 241930Z 32013KT CAVOK M06/M17 Q1030 NOSIG"
    },
    {
      "date": "2026-01-25",
      "time": "04:00",
      "flight_category": "V",
      "weather_condition": "Sunny (Night)",
      "temperature_c": -5,
      "visibility": "10 km+",
      "ceiling": null,
      "wind": {
        "direction": 320,
        "speed_kt": 12
      },
      "raw_metar": "METAR RKSI 241900Z 32012KT CAVOK M05/M16 Q1030 NOSIG"
    },
    {
      "date": "2026-01-25",
      "time": "03:30",
      "flight_category": "V",
      "weather_condition": "Sunny (Night)",
      "temperature_c": -6,
      "visibility": "10 km+",
      "ceiling": null,
      "wind": {
        "direction": 320,
        "speed_kt": 13
      },
      "raw_metar": "METAR RKSI 241830Z 32013KT CAVOK M06/M17 Q1030 NOSIG"
    },
    {
      "date": "2026-01-25",
      "time": "03:00",
      "flight_category": "V",
      "weather_condition": "Sunny (Night)",
      "temperature_c": -6,
      "visibility": "10 km+",
      "ceiling": null,
      "wind": {
        "direction": 310,
        "speed_kt": 10
      },
      "raw_metar": "METAR RKSI 241800Z 31010KT CAVOK M06/M15 Q1030 NOSIG"
    },
    {
      "date": "2026-01-25",
      "time": "02:30",
      "flight_category": "V",
      "weather_condition": "Sunny (Night)",
      "temperature_c": -6,
      "visibility": "10 km+",
      "ceiling": null,
      "wind": {
        "direction": 320,
        "speed_kt": 10
      },
      "raw_metar": "METAR RKSI 241730Z 32010KT CAVOK M06/M15 Q1030 NOSIG"
    },
    {
      "date": "2026-01-25",
      "time": "02:00",
      "flight_category": "V",
      "weather_condition": "Sunny (Night)",
      "temperature_c": -6,
      "visibility": "10 km+",
      "ceiling": null,
      "wind": {
        "direction": 320,
        "speed_kt": 9
      },
      "raw_metar": "METAR RKSI 241700Z 32009KT CAVOK M06/M15 Q1030 NOSIG"
    },
    {
      "date": "2026-01-25",
      "time": "01:30",
      "flight_category": "V",
      "weather_condition": "Sunny (Night)",
      "temperature_c": -5,
      "visibility": "10 km+",
      "ceiling": null,
      "wind": {
        "direction": 330,
        "speed_kt": 11
      },
      "raw_metar": "METAR RKSI 241630Z 33011KT CAVOK M05/M16 Q1030 NOSIG"
    },
    {
      "date": "2026-01-25",
      "time": "01:00",
      "flight_category": "V",
      "weather_condition": "Sunny (Night)",
      "temperature_c": -6,
      "visibility": "10 km+",
      "ceiling": null,
      "wind": {
        "direction": 320,
        "speed_kt": 10
      },
      "raw_metar": "METAR RKSI 241600Z 32010KT CAVOK M06/M15 Q1030 NOSIG"
    },
    {
      "date": "2026-01-25",
      "time": "00:30",
      "flight_category": "V",
      "weather_condition": "Sunny (Night)",
      "temperature_c": -5,
      "visibility": "10 km+",
      "ceiling": null,
      "wind": {
        "direction": 330,
        "speed_kt": 11
      },
      "raw_metar": "METAR RKSI 241530Z 33011KT CAVOK M05/M16 Q1030 NOSIG"
    },
    {
      "date": "2026-01-25",
      "time": "00:00",
      "flight_category": "V",
      "weather_condition": "Sunny (Night)",
      "temperature_c": -5,
      "visibility": "10 km+",
      "ceiling": null,
      "wind": {
        "direction": 340,
        "speed_kt": 12
      },
      "raw_metar": "METAR RKSI 241500Z 34012KT CAVOK M05/M16 Q1029 NOSIG"
    },
    {
      "date": "2026-01-24",
      "time": "23:30",
      "flight_category": "V",
      "weather_condition": "Sunny (Night)",
      "temperature_c": -5,
      "visibility": "10 km+",
      "ceiling": null,
      "wind": {
        "direction": 340,
        "speed_kt": 13
      },
      "raw_metar": "METAR RKSI 241430Z 34013KT CAVOK M05/M16 Q1029 NOSIG"
    },
    {
      "date": "2026-01-24",
      "time": "23:00",
      "flight_category": "V",
      "weather_condition": "Sunny (Night)",
      "temperature_c": -5,
      "visibility": "10 km+",
      "ceiling": null,
      "wind": {
        "direction": 330,
        "speed_kt": 11
      },
      "raw_metar": "METAR RKSI 241400Z 33011KT 290V350 CAVOK M05/M13 Q1029 NOSIG"
    },
    {
      "date": "2026-01-24",
      "time": "22:30",
      "flight_category": "V",
      "weather_condition": "Sunny (Night)",
      "temperature_c": -5,
      "visibility": "10 km+",
      "ceiling": null,
      "wind": {
        "direction": 320,
        "speed_kt": 13
      },
      "raw_metar": "METAR RKSI 241330Z 32013KT CAVOK M05/M12 Q1029 NOSIG"
    },
    {
      "date": "2026-01-24",
      "time": "22:00",
      "flight_category": "V",
      "weather_condition": "Sunny (Night)",
      "temperature_c": -4,
      "visibility": "10 km+",
      "ceiling": null,
      "wind": {
        "direction": 320,
        "speed_kt": 14
      },
      "raw_metar": "METAR RKSI 241300Z 32014KT CAVOK M04/M11 Q1028 NOSIG"
    },
    {
      "date": "2026-01-24",
      "time": "21:30",
      "flight_category": "V",
      "weather_condition": "Sunny (Night)",
      "temperature_c": -4,
      "visibility": "10 km+",
      "ceiling": null,
      "wind": {
        "direction": 320,
        "speed_kt": 12
      },
      "raw_metar": "METAR RKSI 241230Z 32012KT CAVOK M04/M12 Q1028 NOSIG"
    },
    {
      "date": "2026-01-24",
      "time": "21:00",
      "flight_category": "V",
      "weather_condition": "Sunny (Night)",
      "temperature_c": -4,
      "visibility": "10 km+",
      "ceiling": null,
      "wind": {
        "direction": 320,
        "speed_kt": 10
      },
      "raw_metar": "METAR RKSI 241200Z 32010KT CAVOK M04/M12 Q1028 NOSIG"
    },
    {
      "date": "2026-01-24",
      "time": "20:30",
      "flight_category": "V",
      "weather_condition": "Sunny (Night)",
      "temperature_c": -5,
      "visibility": "10 km+",
      "ceiling": null,
      "wind": {
        "direction": 330,
        "speed_kt": 9
      },
      "raw_metar": "METAR RKSI 241130Z 33009KT CAVOK M05/M13 Q1028 NOSIG"
    },
    {
      "date": "2026-01-24",
      "time": "20:00",
      "flight_category": "V",
      "weather_condition": "Sunny (Night)",
      "temperature_c": -3,
      "visibility": "10 km+",
      "ceiling": null,
      "wind": {
        "direction": 310,
        "speed_kt": 11
      },
      "raw_metar": "METAR RKSI 241100Z 31011KT CAVOK M03/M13 Q1027 NOSIG"
    },
    {
      "date": "2026-01-24",
      "time": "19:30",
      "flight_category": "V",
      "weather_condition": "Sunny (Night)",
      "temperature_c": -3,
      "visibility": "10 km+",
      "ceiling": null,
      "wind": {
        "direction": 300,
        "speed_kt": 10
      },
      "raw_metar": "METAR RKSI 241030Z 30010KT CAVOK M03/M11 Q1027 NOSIG"
    },
    {
      "date": "2026-01-24",
      "time": "19:00",
      "flight_category": "V",
      "weather_condition": "Sunny (Night)",
      "temperature_c": -3,
      "visibility": "10 km+",
      "ceiling": null,
      "wind": {
        "direction": 300,
        "speed_kt": 10
      },
      "raw_metar": "METAR RKSI 241000Z 30010KT CAVOK M03/M12 Q1027 NOSIG"
    },
    {
      "date": "2026-01-24",
      "time": "18:30",
      "flight_category": "V",
      "weather_condition": "Few Clouds (Night)",
      "temperature_c": -4,
      "visibility": "10 km+",
      "ceiling": null,
      "wind": {
        "direction": 280,
        "speed_kt": 7
      },
      "raw_metar": "METAR RKSI 240930Z 28007KT 9999 FEW030 M04/M11 Q1027 NOSIG"
    },
    {
      "date": "2026-01-24",
      "time": "18:00",
      "flight_category": "V",
      "weather_condition": "Few Clouds (Night)",
      "temperature_c": -4,
      "visibility": "10 km+",
      "ceiling": null,
      "wind": {
        "direction": 260,
        "speed_kt": 5
      },
      "raw_metar": "METAR RKSI 240900Z 26005KT 9999 FEW030 M04/M11 Q1026 NOSIG"
    },
    {
      "date": "2026-01-24",
      "time": "17:30",
      "flight_category": "V",
      "weather_condition": "Few Clouds",
      "temperature_c": -3,
      "visibility": "10 km+",
      "ceiling": null,
      "wind": {
        "direction": 260,
        "speed_kt": 5
      },
      "raw_metar": "METAR RKSI 240830Z 26005KT 9999 FEW030 M03/M11 Q1026 NOSIG"
    },
    {
      "date": "2026-01-24",
      "time": "17:00",
      "flight_category": "V",
      "weather_condition": "Few Clouds",
      "temperature_c": -3,
      "visibility": "10 km+",
      "ceiling": null,
      "wind": {
        "direction": 270,
        "speed_kt": 7
      },
      "raw_metar": "METAR RKSI 240800Z 27007KT 9999 FEW030 M03/M12 Q1026 NOSIG"
    },
    {
      "date": "2026-01-24",
      "time": "16:30",
      "flight_category": "V",
      "weather_condition": "Sunny",
      "temperature_c": -2,
      "visibility": "10 km+",
      "ceiling": null,
      "wind": {
        "direction": 280,
        "speed_kt": 7
      },
      "raw_metar": "METAR RKSI 240730Z 28007KT 250V320 CAVOK M02/M12 Q1026 NOSIG"
    },
    {
      "date": "2026-01-24",
      "time": "16:00",
      "flight_category": "V",
      "weather_condition": "Sunny",
      "temperature_c": -2,
      "visibility": "10 km+",
      "ceiling": null,
      "wind": {
        "direction": 280,
        "speed_kt": 8
      },
      "raw_metar": "METAR RKSI 240700Z 28008KT CAVOK M02/M13 Q1026 NOSIG"
    },
    {
      "date": "2026-01-24",
      "time": "15:30",
      "flight_category": "V",
      "weather_condition": "Sunny",
      "temperature_c": -3,
      "visibility": "10 km+",
      "ceiling": null,
      "wind": {
        "direction": 270,
        "speed_kt": 7
      },
      "raw_metar": "METAR RKSI 240630Z 27007KT 230V320 CAVOK M03/M13 Q1026 NOSIG"
    },
    {
      "date": "2026-01-24",
      "time": "15:00",
      "flight_category": "V",
      "weather_condition": "Sunny",
      "temperature_c": -3,
      "visibility": "10 km+",
      "ceiling": null,
      "wind": {
        "direction": 290,
        "speed_kt": 9
      },
      "raw_metar": "METAR RKSI 240600Z 29009KT 250V330 CAVOK M03/M14 Q1026 NOSIG"
    },
    {
      "date": "2026-01-24",
      "time": "14:30",
      "flight_category": "V",
      "weather_condition": "Sunny",
      "temperature_c": -3,
      "visibility": "10 km+",
      "ceiling": null,
      "wind": {
        "direction": 280,
        "speed_kt": 4
      },
      "raw_metar": "METAR RKSI 240530Z 28004KT 280V360 CAVOK M03/M14 Q1027 NOSIG"
    },
    {
      "date": "2026-01-24",
      "time": "14:00",
      "flight_category": "V",
      "weather_condition": "Sunny",
      "temperature_c": -4,
      "visibility": "10 km+",
      "ceiling": null,
      "wind": {
        "direction": 280,
        "speed_kt": 7
      },
      "raw_metar": "METAR RKSI 240500Z 28007KT 240V330 CAVOK M04/M16 Q1027 NOSIG"
    },
    {
      "date": "2026-01-24",
      "time": "13:30",
      "flight_category": "V",
      "weather_condition": "Sunny",
      "temperature_c": -3,
      "visibility": "10 km+",
      "ceiling": null,
      "wind": {
        "direction": 260,
        "speed_kt": 7
      },
      "raw_metar": "METAR RKSI 240430Z 26007KT 220V320 CAVOK M03/M13 Q1027 NOSIG"
    },
    {
      "date": "2026-01-24",
      "time": "13:00",
      "flight_category": "V",
      "weather_condition": "Sunny",
      "temperature_c": -4,
      "visibility": "10 km+",
      "ceiling": null,
      "wind": {
        "direction": 300,
        "speed_kt": 5
      },
      "raw_metar": "METAR RKSI 240400Z 30005KT 260V340 CAVOK M04/M16 Q1028 NOSIG"
    },
    {
      "date": "2026-01-24",
      "time": "12:30",
      "flight_category": "V",
      "weather_condition": "Sunny",
      "temperature_c": -4,
      "visibility": "10 km+",
      "ceiling": null,
      "wind": {
        "direction": 290,
        "speed_kt": 5
      },
      "raw_metar": "METAR RKSI 240330Z 29005KT 230V350 CAVOK M04/M16 Q1028 NOSIG"
    },
    {
      "date": "2026-01-24",
      "time": "12:00",
      "flight_category": "V",
      "weather_condition": "Sunny",
      "temperature_c": -5,
      "visibility": "10 km+",
      "ceiling": null,
      "wind": {
        "direction": 310,
        "speed_kt": 7
      },
      "raw_metar": "METAR RKSI 240300Z 31007KT 250V350 CAVOK M05/M16 Q1028 NOSIG"
    },
    {
      "date": "2026-01-24",
      "time": "11:30",
      "flight_category": "V",
      "weather_condition": "Sunny",
      "temperature_c": -5,
      "visibility": "10 km+",
      "ceiling": null,
      "wind": {
        "direction": 330,
        "speed_kt": 10
      },
      "raw_metar": "METAR RKSI 240230Z 33010KT 280V350 CAVOK M05/M16 Q1028 NOSIG"
    },
    {
      "date": "2026-01-24",
      "time": "11:00",
      "flight_category": "V",
      "weather_condition": "Sunny",
      "temperature_c": -5,
      "visibility": "10 km+",
      "ceiling": null,
      "wind": {
        "direction": 310,
        "speed_kt": 11
      },
      "raw_metar": "METAR RKSI 240200Z 31011KT CAVOK M05/M18 Q1028 NOSIG"
    },
    {
      "date": "2026-01-24",
      "time": "10:30",
      "flight_category": "V",
      "weather_condition": "Sunny",
      "temperature_c": -5,
      "visibility": "10 km+",
      "ceiling": null,
      "wind": {
        "direction": 310,
        "speed_kt": 7
      },
      "raw_metar": "METAR RKSI 240130Z 31007KT 280V350 CAVOK M05/M17 Q1029 NOSIG"
    },
    {
      "date": "2026-01-24",
      "time": "10:00",
      "flight_category": "V",
      "weather_condition": "Sunny",
      "temperature_c": -6,
      "visibility": "10 km+",
      "ceiling": null,
      "wind": {
        "direction": 330,
        "speed_kt": 7
      },
      "raw_metar": "METAR RKSI 240100Z 33007KT CAVOK M06/M17 Q1028 NOSIG"
    },
    {
      "date": "2026-01-24",
      "time": "09:30",
      "flight_category": "V",
      "weather_condition": "Sunny",
      "temperature_c": -7,
      "visibility": "10 km+",
      "ceiling": null,
      "wind": {
        "direction": 330,
        "speed_kt": 8
      },
      "raw_metar": "METAR RKSI 240030Z 33008KT CAVOK M07/M18 Q1028 NOSIG"
    },
    {
      "date": "2026-01-24",
      "time": "09:00",
      "flight_category": "V",
      "weather_condition": "Sunny",
      "temperature_c": -7,
      "visibility": "10 km+",
      "ceiling": null,
      "wind": {
        "direction": 350,
        "speed_kt": 7
      },
      "raw_metar": "METAR RKSI 240000Z 35007KT CAVOK M07/M19 Q1028 NOSIG"
    },
    {
      "date": "2026-01-24",
      "time": "08:30",
      "flight_category": "V",
      "weather_condition": "Sunny (Night)",
      "temperature_c": -7,
      "visibility": "10 km+",
      "ceiling": null,
      "wind": {
        "direction": 360,
        "speed_kt": 10
      },
      "raw_metar": "METAR RKSI 232330Z 36010KT CAVOK M07/M20 Q1027 NOSIG"
    },
    {
      "date": "2026-01-24",
      "time": "08:00",
      "flight_category": "V",
      "weather_condition": "Sunny (Night)",
      "temperature_c": -8,
      "visibility": "10 km+",
      "ceiling": null,
      "wind": {
        "direction": 330,
        "speed_kt": 11
      },
      "raw_metar": "METAR RKSI 232300Z 33011KT 300V360 CAVOK M08/M18 Q1027 NOSIG"
    },
    {
      "date": "2026-01-24",
      "time": "07:30",
      "flight_category": "V",
      "weather_condition": "Sunny (Night)",
      "temperature_c": -8,
      "visibility": "10 km+",
      "ceiling": null,
      "wind": {
        "direction": 340,
        "speed_kt": 9
      },
      "raw_metar": "METAR RKSI 232230Z 34009KT CAVOK M08/M17 Q1026 NOSIG"
    },
    {
      "date": "2026-01-24",
      "time": "07:00",
      "flight_category": "V",
      "weather_condition": "Sunny (Night)",
      "temperature_c": -8,
      "visibility": "10 km+",
      "ceiling": null,
      "wind": {
        "direction": 320,
        "speed_kt": 11
      },
      "raw_metar": "METAR RKSI 232200Z 32011KT CAVOK M08/M17 Q1026 NOSIG"
    },
    {
      "date": "2026-01-24",
      "time": "06:30",
      "flight_category": "V",
      "weather_condition": "Sunny (Night)",
      "temperature_c": -8,
      "visibility": "10 km+",
      "ceiling": null,
      "wind": {
        "direction": 310,
        "speed_kt": 10
      },
      "raw_metar": "METAR RKSI 232130Z 31010KT CAVOK M08/M17 Q1026 NOSIG"
    },
    {
      "date": "2026-01-24",
      "time": "06:00",
      "flight_category": "V",
      "weather_condition": "Sunny (Night)",
      "temperature_c": -8,
      "visibility": "10 km+",
      "ceiling": null,
      "wind": {
        "direction": 340,
        "speed_kt": 6
      },
      "raw_metar": "METAR RKSI 232100Z 34006KT CAVOK M08/M14 Q1026 NOSIG"
    },
    {
      "date": "2026-01-24",
      "time": "05:30",
      "flight_category": "V",
      "weather_condition": "Sunny (Night)",
      "temperature_c": -7,
      "visibility": "10 km+",
      "ceiling": null,
      "wind": {
        "direction": 340,
        "speed_kt": 9
      },
      "raw_metar": "METAR RKSI 232030Z 34009KT CAVOK M07/M13 Q1025 NOSIG"
    },
    {
      "date": "2026-01-24",
      "time": "05:00",
      "flight_category": "V",
      "weather_condition": "Sunny (Night)",
      "temperature_c": -7,
      "visibility": "10 km+",
      "ceiling": null,
      "wind": {
        "direction": 320,
        "speed_kt": 11
      },
      "raw_metar": "METAR RKSI 232000Z 32011KT CAVOK M07/M14 Q1025 NOSIG"
    },
    {
      "date": "2026-01-24",
      "time": "04:30",
      "flight_category": "V",
      "weather_condition": "Sunny (Night)",
      "temperature_c": -6,
      "visibility": "10 km+",
      "ceiling": null,
      "wind": {
        "direction": 320,
        "speed_kt": 13
      },
      "raw_metar": "METAR RKSI 231930Z 32013KT CAVOK M06/M13 Q1025 NOSIG"
    },
    {
      "date": "2026-01-24",
      "time": "04:00",
      "flight_category": "V",
      "weather_condition": "Sunny (Night)",
      "temperature_c": -6,
      "visibility": "10 km+",
      "ceiling": null,
      "wind": {
        "direction": 340,
        "speed_kt": 11
      },
      "raw_metar": "METAR RKSI 231900Z 34011KT CAVOK M06/M13 Q1025 NOSIG"
    },
    {
      "date": "2026-01-24",
      "time": "03:30",
      "flight_category": "V",
      "weather_condition": "Sunny (Night)",
      "temperature_c": -6,
      "visibility": "10 km+",
      "ceiling": null,
      "wind": {
        "direction": 340,
        "speed_kt": 12
      },
      "raw_metar": "METAR RKSI 231830Z 34012KT CAVOK M06/M13 Q1025 NOSIG"
    },
    {
      "date": "2026-01-24",
      "time": "03:00",
      "flight_category": "V",
      "weather_condition": "Few Clouds (Night)",
      "temperature_c": -6,
      "visibility": "10 km+",
      "ceiling": null,
      "wind": {
        "direction": 340,
        "speed_kt": 14
      },
      "raw_metar": "METAR RKSI 231800Z 34014KT 9999 FEW015 M06/M14 Q1025 NOSIG"
    },
    {
      "date": "2026-01-24",
      "time": "02:30",
      "flight_category": "V",
      "weather_condition": "Few Clouds (Night)",
      "temperature_c": -5,
      "visibility": "10 km+",
      "ceiling": null,
      "wind": {
        "direction": 340,
        "speed_kt": 15
      },
      "raw_metar": "METAR RKSI 231730Z 34015KT 9999 FEW015 M05/M12 Q1024 NOSIG"
    },
    {
      "date": "2026-01-24",
      "time": "02:00",
      "flight_category": "V",
      "weather_condition": "Few Clouds (Night)",
      "temperature_c": -5,
      "visibility": "10 km+",
      "ceiling": null,
      "wind": {
        "direction": 330,
        "speed_kt": 17
      },
      "raw_metar": "METAR RKSI 231700Z 33017KT 9999 FEW015 M05/M10 Q1024 NOSIG"
    },
    {
      "date": "2026-01-24",
      "time": "01:30",
      "flight_category": "V",
      "weather_condition": "Few Clouds (Night)",
      "temperature_c": -5,
      "visibility": "8 km",
      "ceiling": null,
      "wind": {
        "direction": 340,
        "speed_kt": 15
      },
      "raw_metar": "METAR RKSI 231630Z 34015KT 8000 FEW015 M05/M08 Q1024 NOSIG"
    },
    {
      "date": "2026-01-24",
      "time": "01:00",
      "flight_category": "V",
      "weather_condition": "Few Clouds (Night)",
      "temperature_c": -4,
      "visibility": "8 km",
      "ceiling": null,
      "wind": {
        "direction": 330,
        "speed_kt": 15
      },
      "raw_metar": "METAR RKSI 231600Z 33015KT 8000 FEW015 M04/M06 Q1023 NOSIG"
    },
    {
      "date": "2026-01-24",
      "time": "00:30",
      "flight_category": "V",
      "weather_condition": "Scattered Clouds (Night)",
      "temperature_c": -3,
      "visibility": "8 km",
      "ceiling": null,
      "wind": {
        "direction": 320,
        "speed_kt": 15
      },
      "raw_metar": "METAR RKSI 231530Z 32015KT 8000 FEW015 SCT030 M03/M06 Q1023 NOSIG"
    },
    {
      "date": "2026-01-24",
      "time": "00:00",
      "flight_category": "M",
      "weather_condition": "Broken Clouds (Night)",
      "temperature_c": -3,
      "visibility": "7 km",
      "ceiling": "3,000 ft",
      "wind": {
        "direction": 320,
        "speed_kt": 10
      },
      "raw_metar": "METAR RKSI 231500Z 32010KT 7000 SCT010 BKN030 M03/M05 Q1023 NOSIG"
    },
    {
      "date": "2026-01-23",
      "time": "23:30",
      "flight_category": "I",
      "weather_condition": "Mist",
      "temperature_c": -4,
      "visibility": "4.5 km",
      "ceiling": "3,000 ft",
      "wind": {
        "direction": 320,
        "speed_kt": 5
      },
      "raw_metar": "METAR RKSI 231430Z 32005KT 290V350 4500 BR FEW010 BKN030 M04/M05 Q1023 NOSIG"
    },
    {
      "date": "2026-01-23",
      "time": "23:00",
      "flight_category": "I",
      "weather_condition": "Mist",
      "temperature_c": -2,
      "visibility": "4 km",
      "ceiling": "3,000 ft",
      "wind": {
        "direction": 290,
        "speed_kt": 5
      },
      "raw_metar": "METAR RKSI 231400Z 29005KT 260V330 4000 BR SCT010 OVC030 M02/M03 Q1023 NOSIG"
    },
    {
      "date": "2026-01-23",
      "time": "22:30",
      "flight_category": "I",
      "weather_condition": "Mist",
      "temperature_c": -1,
      "visibility": "3.5 km",
      "ceiling": "2,500 ft",
      "wind": {
        "direction": 300,
        "speed_kt": 4
      },
      "raw_metar": "METAR RKSI 231330Z 30004KT 240V340 3500 BR SCT010 OVC025 M01/M02 Q1023 NOSIG"
    },
    {
      "date": "2026-01-23",
      "time": "22:00",
      "flight_category": "I",
      "weather_condition": "Mist",
      "temperature_c": -1,
      "visibility": "3 km",
      "ceiling": "2,500 ft",
      "wind": {
        "direction": 300,
        "speed_kt": 4
      },
      "raw_metar": "METAR RKSI 231300Z 30004KT 3000 BR SCT010 OVC025 M01/M01 Q1023 NOSIG"
    },
    {
      "date": "2026-01-23",
      "time": "21:30",
      "flight_category": "I",
      "weather_condition": "Snow",
      "temperature_c": -2,
      "visibility": "1.5 km",
      "ceiling": "2,500 ft",
      "wind": {
        "direction": 110,
        "speed_kt": 3
      },
      "raw_metar": "METAR RKSI 231230Z 11003KT 360V110 1500 -SN SCT010 OVC025 M02/M03 Q1023 WS R16L R34R R16R R34L NOSIG"
    },
    {
      "date": "2026-01-23",
      "time": "21:00",
      "flight_category": "I",
      "weather_condition": "Snow",
      "temperature_c": -2,
      "visibility": "1.5 km",
      "ceiling": "2,500 ft",
      "wind": {
        "direction": 130,
        "speed_kt": 6
      },
      "raw_metar": "METAR RKSI 231200Z 13006KT 100V160 1500 R15L/1500D R15R/1500D R16L/1400D R16R/1500D -SN SCT010 OVC025 M02/M03 Q1024 NOSIG"
    },
    {
      "date": "2026-01-23",
      "time": "20:30",
      "flight_category": "M",
      "weather_condition": "Snow",
      "temperature_c": -1,
      "visibility": "6 km",
      "ceiling": "2,500 ft",
      "wind": {
        "direction": 160,
        "speed_kt": 6
      },
      "raw_metar": "METAR RKSI 231130Z 16006KT 6000 2000SW -SN SCT015 BKN025 M01/M04 Q1024 NOSIG"
    },
    {
      "date": "2026-01-23",
      "time": "20:00",
      "flight_category": "M",
      "weather_condition": "Broken Clouds (Night)",
      "temperature_c": -2,
      "visibility": "10 km+",
      "ceiling": "2,500 ft",
      "wind": {
        "direction": 120,
        "speed_kt": 5
      },
      "raw_metar": "METAR RKSI 231100Z 12005KT 9999 SCT015 BKN025 M02/M05 Q1024 NOSIG"
    },
    {
      "date": "2026-01-23",
      "time": "19:30",
      "flight_category": "M",
      "weather_condition": "Snow",
      "temperature_c": -2,
      "visibility": "8 km",
      "ceiling": "2,500 ft",
      "wind": {
        "direction": 130,
        "speed_kt": 3
      },
      "raw_metar": "METAR RKSI 231030Z 13003KT 100V170 8000 3500N -SN SCT015 BKN025 M02/M05 Q1024 NOSIG"
    },
    {
      "date": "2026-01-23",
      "time": "19:00",
      "flight_category": "M",
      "weather_condition": "Snow",
      "temperature_c": -2,
      "visibility": "10 km+",
      "ceiling": "2,500 ft",
      "wind": {
        "direction": 180,
        "speed_kt": 8
      },
      "raw_metar": "METAR RKSI 231000Z 18008KT 150V210 9999 -SN BKN025 BKN040 M02/M06 Q1024 NOSIG"
    },
    {
      "date": "2026-01-23",
      "time": "18:30",
      "flight_category": "M",
      "weather_condition": "Snow",
      "temperature_c": -3,
      "visibility": "10 km+",
      "ceiling": "2,500 ft",
      "wind": {
        "direction": 160,
        "speed_kt": 4
      },
      "raw_metar": "METAR RKSI 230930Z 16004KT 9999 -SN BKN025 M03/M09 Q1024 NOSIG"
    },
    {
      "date": "2026-01-23",
      "time": "18:00",
      "flight_category": "M",
      "weather_condition": "Snow",
      "temperature_c": -3,
      "visibility": "10 km+",
      "ceiling": "2,500 ft",
      "wind": {
        "direction": 120,
        "speed_kt": 4
      },
      "raw_metar": "METAR RKSI 230900Z 12004KT 9999 BKN025 BKN040 M03/M11 Q1024 TEMPO 6000 -SN"
    }
  ]
}